{
    "links": {
        "self": "http://www.neowsapp.com/rest/v1/neo/3753306?api_key=iIulBulltgU6a56xZRHN4H3l9WmuAYTsLGpBGhQ2"
    },
    "id": "3753306",
    "neo_reference_id": "3753306",
    "name": "(2016 JG29)",
    "designation": "2016 JG29",
    "nasa_jpl_url": "http://ssd.jpl.nasa.gov/sbdb.cgi?sstr=3753306",
    "absolute_magnitude_h": 25.4,
    "estimated_diameter": {
        "kilometers": {
            "estimated_diameter_min": 0.022108281,
            "estimated_diameter_max": 0.0494356193
        },
        "meters": {
            "estimated_diameter_min": 22.1082810359,
            "estimated_diameter_max": 49.435619262
        },
        "miles": {
            "estimated_diameter_min": 0.0137374447,
            "estimated_diameter_max": 0.0307178602
        },
        "feet": {
            "estimated_diameter_min": 72.5337327539,
            "estimated_diameter_max": 162.1903570994
        }
    },
    "is_potentially_hazardous_asteroid": false,
    "close_approach_data": [
        {
            "close_approach_date": "2016-05-09",
            "close_approach_date_full": "2016-May-09 00:54",
            "epoch_date_close_approach": 1462755240000,
            "relative_velocity": {
                "kilometers_per_second": "14.630755604",
                "kilometers_per_hour": "52670.7201745249",
                "miles_per_hour": "32727.5372106652"
            },
            "miss_distance": {
                "astronomical": "0.0125829303",
                "lunar": "4.8947598867",
                "kilometers": "1882379.571238461",
                "miles": "1169656.4278783218"
            },
            "orbiting_body": "Earth"
        }
    ],
    "orbital_data": {
        "orbit_id": "6",
        "orbit_determination_date": "2017-04-06 08:25:53",
        "first_observation_date": "2016-05-12",
        "last_observation_date": "2016-05-16",
        "data_arc_in_days": 4,
        "observations_used": 56,
        "orbit_uncertainty": "8",
        "minimum_orbit_intersection": ".00559623",
        "jupiter_tisserand_invariant": "3.415",
        "epoch_osculation": "2457521.5",
        "eccentricity": ".6198795676646943",
        "semi_major_axis": "2.161871214399914",
        "inclination": "4.678141007684899",
        "ascending_node_longitude": "223.6910639416055",
        "orbital_period": "1161.029234110598",
        "perihelion_distance": ".8217714206709477",
        "perihelion_argument": "304.9590902261791",
        "aphelion_distance": "3.50197100812888",
        "perihelion_time": "2457476.742824799133",
        "mean_anomaly": "13.8778444150505",
        "mean_motion": ".3100697117896232",
        "equinox": "J2000",
        "orbit_class": {
            "orbit_class_type": "APO",
            "orbit_class_description": "Near-Earth asteroid orbits which cross the Earth’s orbit similar to that of 1862 Apollo",
            "orbit_class_range": "a (semi-major axis) > 1.0 AU; q (perihelion) < 1.017 AU"
        }
    },
    "is_sentry_object": false
}